GLOBALSTAR M040 [-]     
1 25622U 99004B   23259.13240220 -.00000081  00000+0  12432-3 0  9998
2 25622  51.9904 205.5249 0001003  61.5651 312.0059 12.61953930134740
GLOBALSTAR M036 [-]     
1 25623U 99004C   23259.10756847 -.00000103  00000+0 -29946-3 0  9997
2 25623  51.9953 127.3540 0010242 269.2984 259.2217 11.86553593102976
GLOBALSTAR M038 [-]     
1 25624U 99004D   23258.04085624 -.00000055  00000+0  33336-3 0  9991
2 25624  51.9964 117.9256 0001935 132.7551  14.7620 12.32483961123317
GLOBALSTAR M046 [-]     
1 25651U 99012C   23259.07415852 -.00000013  00000+0  83691-3 0  9997
2 25651  52.0038 204.4699 0002606  51.4659  29.0287 12.09375514106560
GLOBALSTAR M037 [+]     
1 25652U 99012D   23258.41975854 -.00000108  00000+0 -23529-4 0  9999
2 25652  52.0032 335.3400 0001824 192.4513 248.6610 12.62382704130345
